GSAT-16                 
1 40332U 14078A   17345.62361775  .00000078  00000-0  00000-0 0  9994
2 40332   0.0183 311.8720 0002731 156.6172 251.5459  1.00272721 10957
